FLOCK 4A-12             
1 44108U 19018AE  19249.12955104  .00000907  00000-0  42466-4 0  9990
2 44108  97.4489 308.3662 0013002  97.4111 317.9472 15.22204905 23904
